NORAD_CAT_ID,OBJECT_NAME,OBJECT_TYPE,EPOCH,MEAN_MOTION,ECCENTRICITY,INCLINATION,RA_OF_ASC_NODE,ARG_OF_PERICENTER,MEAN_ANOMALY,BSTAR,MEAN_MOTION_DOT,MEAN_MOTION_DDOT,TLE_LINE0,TLE_LINE1,TLE_LINE2,SEMIMAJOR_AXIS,PERIOD,APOGEE,PERIGEE,DECAYED
51137.0,STARLINK-3180,PAYLOAD,2024-02-15 02:28:39,15.08830339,0.0001403,53.2171,82.1003,95.7008,264.4144,5.5467e-05,5.95e-06,0.0,0 STARLINK-3180,1 51137U 22005AK  24046.10323742  .00000595  00000-0  55467-4 0  9994,2 51137  53.2171  82.1003 0001403  95.7008 264.4144 15.08830339116080,6917.91,95.438,540.746,538.804,0.0
51137.0,STARLINK-3180,PAYLOAD,2024-02-15 12:00:58,15.08835248,0.0001472,53.2174,80.3158,91.7591,268.357,0.00010665,1.41e-05,0.0,0 STARLINK-3180,1 51137U 22005AK  24046.50067679  .00001410  00000-0  10665-3 0  9999,2 51137  53.2174  80.3158 0001472  91.7591 268.3570 15.08835248115037,6917.895,95.438,540.778,538.742,0.0
51137.0,STARLINK-3180,PAYLOAD,2024-02-16 08:40:58,15.08849454,0.0001564,53.2161,76.4492,86.0731,274.044,0.00018792,2.705e-05,0.0,0 STARLINK-3180,1 51137U 22005AK  24047.36179111  .00002705  00000-0  18792-3 0  9996,2 51137  53.2161  76.4492 0001564  86.0731 274.0440 15.08849454116276,6917.851,95.437,540.798,538.635,0.0
51137.0,STARLINK-3180,PAYLOAD,2024-02-17 08:31:46,15.08836429,0.0001574,53.2167,71.99,80.1811,279.9358,0.00010666,1.41e-05,0.0,0 STARLINK-3180,1 51137U 22005AK  24048.35540026  .00001410  00000-0  10666-3 0  9997,2 51137  53.2167  71.9900 0001574  80.1811 279.9358 15.08836429116428,6917.891,95.438,540.845,538.667,0.0
51137.0,STARLINK-3180,PAYLOAD,2024-02-17 18:04:05,15.08841032,0.0001609,53.2168,70.2062,82.3059,277.8116,8.4455e-05,1.056e-05,0.0,0 STARLINK-3180,1 51137U 22005AK  24048.75283810  .00001056  00000-0  84455-4 0  9990,2 51137  53.2168  70.2062 0001609  82.3059 277.8116 15.08841032115375,6917.877,95.437,540.855,538.629,0.0
51137.0,STARLINK-3180,PAYLOAD,2024-02-18 08:22:33,15.08843577,0.0001651,53.2175,67.5327,96.3875,263.7305,8.8904e-06,-1.47e-06,0.0,0 STARLINK-3180,1 51137U 22005AK  24049.34899925 -.00000147  00000-0  88904-5 0  9991,2 51137  53.2175  67.5327 0001651  96.3875 263.7305 15.08843577115464,6917.869,95.437,540.877,538.592,0.0
51137.0,STARLINK-3180,PAYLOAD,2024-02-18 17:54:52,15.08843553,0.0001716,53.2184,65.7483,94.3079,265.8109,-5.5493e-06,-3.76e-06,0.0,0 STARLINK-3180,1 51137U 22005AK  24049.74643790 -.00000376  00000-0 -55493-5 0  9994,2 51137  53.2184  65.7483 0001716  94.3079 265.8109 15.08843553116632,6917.87,95.437,540.922,538.547,0.0
51137.0,STARLINK-3180,PAYLOAD,2024-02-19 09:48:43,15.08844905,0.0001707,53.2187,62.7747,98.4856,261.6329,0.00011362,1.521e-05,0.0,0 STARLINK-3180,1 51137U 22005AK  24050.40883740  .00001521  00000-0  11362-3 0  9996,2 51137  53.2187  62.7747 0001707  98.4856 261.6329 15.08844905115621,6917.865,95.437,540.911,538.55,0.0
51137.0,STARLINK-3180,PAYLOAD,2024-02-19 17:45:39,15.08844521,0.0001734,53.2186,61.2856,87.4045,272.7146,4.2435e-05,3.87e-06,0.0,0 STARLINK-3180,1 51137U 22005AK  24050.74003905  .00000387  00000-0  42435-4 0  9995,2 51137  53.2186  61.2856 0001734  87.4045 272.7146 15.08844521115672,6917.867,95.437,540.931,538.532,0.0
51137.0,STARLINK-3180,PAYLOAD,2024-02-20 08:04:08,15.08839307,0.0001757,53.2186,58.6091,84.8147,275.3046,3.0142e-05,1.92e-06,0.0,0 STARLINK-3180,1 51137U 22005AK  24051.33620424  .00000192  00000-0  30142-4 0  9998,2 51137  53.2186  58.6091 0001757  84.8147 275.3046 15.08839307116879,6917.883,95.438,540.963,538.532,0.0
51137.0,STARLINK-3180,PAYLOAD,2024-02-20 17:36:26,15.08840864,0.0001816,53.2192,56.8265,85.9373,274.1827,7.1679e-05,8.53e-06,0.0,0 STARLINK-3180,1 51137U 22005AK  24051.73364248  .00000853  00000-0  71679-4 0  9995,2 51137  53.2192  56.8265 0001816  85.9373 274.1827 15.08840864115826,6917.878,95.438,540.999,538.486,0.0
51137.0,STARLINK-3180,PAYLOAD,2024-02-21 07:54:54,15.08846151,0.000187,53.2191,54.1502,84.1516,275.9689,5.8473e-05,6.43e-06,0.0,0 STARLINK-3180,1 51137U 22005AK  24052.32979904  .00000643  00000-0  58473-4 0  9996,2 51137  53.2191  54.1502 0001870  84.1516 275.9689 15.08846151115910,6917.862,95.437,541.02,538.433,0.0
51137.0,STARLINK-3180,PAYLOAD,2024-02-21 17:27:13,15.08838168,0.0001793,53.2186,52.3659,86.9796,273.1401,-2.52e-06,-3.28e-06,0.0,0 STARLINK-3180,1 51137U 22005AK  24052.72724490 -.00000328  00000-0 -25200-5 0  9993,2 51137  53.2186  52.3659 0001793  86.9796 273.1401 15.08838168117082,6917.886,95.438,540.991,538.511,0.0
51137.0,STARLINK-3180,PAYLOAD,2024-02-22 09:21:05,15.0884097,0.0001614,53.2188,49.3885,98.4568,261.6607,5.1397e-05,5.3e-06,0.0,0 STARLINK-3180,1 51137U 22005AK  24053.38964140  .00000530  00000-0  51397-4 0  9992,2 51137  53.2188  49.3885 0001614  98.4568 261.6607 15.08840970116070,6917.877,95.437,540.859,538.626,0.0
51137.0,STARLINK-3180,PAYLOAD,2024-02-23 04:25:42,15.08843427,0.0001586,53.2188,45.8195,101.0085,259.1086,6.1067e-05,6.84e-06,0.0,0 STARLINK-3180,1 51137U 22005AK  24054.18451880  .00000684  00000-0  61067-4 0  9998,2 51137  53.2188  45.8195 0001586 101.0085 259.1086 15.08843427117308,6917.87,95.437,540.832,538.638,0.0
51137.0,STARLINK-3180,PAYLOAD,2024-02-23 06:01:05,15.08845314,0.0001535,53.219,45.5221,101.4137,258.7028,8.4373e-05,1.055e-05,0.0,0 STARLINK-3180,1 51137U 22005AK  24054.25075701  .00001055  00000-0  84373-4 0  9998,2 51137  53.2190  45.5221 0001535 101.4137 258.7028 15.08845314116200,6917.864,95.437,540.791,538.667,0.0
51137.0,STARLINK-3180,PAYLOAD,2024-02-24 04:16:30,15.08834375,0.000161,53.2189,41.3605,101.7882,258.329,2.6963e-05,1.41e-06,0.0,0 STARLINK-3180,1 51137U 22005AK  24055.17812748  .00000141  00000-0  26963-4 0  9996,2 51137  53.2189  41.3605 0001610 101.7882 258.3290 15.08834375117452,6917.898,95.438,540.876,538.649,0.0
51137.0,STARLINK-3180,PAYLOAD,2024-02-24 09:02:39,15.08839887,0.0001368,53.2176,40.4697,91.5443,268.5705,3.6108e-05,2.87e-06,0.0,0 STARLINK-3180,1 51137U 22005AK  24055.37684499  .00000287  00000-0  36108-4 0  9991,2 51137  53.2176  40.4697 0001368  91.5443 268.5705 15.08839887116375,6917.881,95.438,540.692,538.799,0.0
51137.0,STARLINK-3180,PAYLOAD,2024-02-24 15:24:12,15.08835882,0.0001324,53.2172,39.2799,89.835,270.2793,-8.8818e-06,-4.29e-06,0.0,0 STARLINK-3180,1 51137U 22005AK  24055.64180929 -.00000429  00000-0 -88818-5 0  9996,2 51137  53.2172  39.2799 0001324  89.8350 270.2793 15.08835882116412,6917.893,95.438,540.674,538.842,0.0
51137.0,STARLINK-3180,PAYLOAD,2024-02-25 05:42:40,15.08843142,0.0001562,53.2187,36.6027,94.2253,265.8917,1.7752e-05,-5e-08,0.0,0 STARLINK-3180,1 51137U 22005AK  24056.23796568 -.00000005  00000-0  17752-4 0  9991,2 51137  53.2187  36.6027 0001562  94.2253 265.8917 15.08843142117618,6917.871,95.437,540.816,538.655,0.0
51137.0,STARLINK-3180,PAYLOAD,2024-02-25 15:14:58,15.08849317,0.0001556,53.219,34.8191,89.1259,270.9912,1.0865e-05,-1.15e-06,0.0,0 STARLINK-3180,1 51137U 22005AK  24056.63540195 -.00000115  00000-0  10865-4 0  9998,2 51137  53.2190  34.8191 0001556  89.1259 270.9912 15.08849317116561,6917.852,95.437,540.793,538.64,0.0
51137.0,STARLINK-3180,PAYLOAD,2024-02-26 05:33:27,15.0884275,0.0001597,53.2197,32.1432,87.2697,272.8478,0.00012205,1.655e-05,0.0,0 STARLINK-3180,1 51137U 22005AK  24057.23156539  .00001655  00000-0  12205-3 0  9998,2 51137  53.2197  32.1432 0001597  87.2697 272.8478 15.08842750116659,6917.872,95.437,540.842,538.632,0.0
51137.0,STARLINK-3180,PAYLOAD,2024-02-27 03:48:51,15.08839684,0.0001631,53.2197,27.9821,94.1312,265.9867,2.9525e-05,1.82e-06,0.0,0 STARLINK-3180,1 51137U 22005AK  24058.15893122  .00000182  00000-0  29525-4 0  9994,2 51137  53.2197  27.9821 0001631  94.1312 265.9867 15.08839684117909,6917.881,95.438,540.875,538.618,0.0
51137.0,STARLINK-3180,PAYLOAD,2024-02-27 06:59:37,15.08845224,0.0001577,53.2202,27.386,95.3447,264.7725,5.5288e-05,5.92e-06,0.0,0 STARLINK-3180,1 51137U 22005AK  24058.29140627  .00000592  00000-0  55288-4 0  9994,2 51137  53.2202  27.3860 0001577  95.3447 264.7725 15.08845224116810,6917.864,95.437,540.82,538.638,0.0
51137.0,STARLINK-3180,PAYLOAD,2024-02-27 14:56:33,15.08843076,0.0001704,53.2207,25.897,84.9915,275.1272,2.9509e-05,1.82e-06,0.0,0 STARLINK-3180,1 51137U 22005AK  24058.62260832  .00000182  00000-0  29509-4 0  9994,2 51137  53.2207  25.8970 0001704  84.9915 275.1272 15.08843076116867,6917.871,95.437,540.915,538.557,0.0
51137.0,STARLINK-3180,PAYLOAD,2024-02-28 05:15:01,15.0884256,0.0001452,53.2195,23.2233,91.7458,268.37,-2.5638e-05,-6.96e-06,0.0,0 STARLINK-3180,1 51137U 22005AK  24059.21876877 -.00000696  00000-0 -25638-4 0  9993,2 51137  53.2195  23.2233 0001452  91.7458 268.3700 15.08842560118066,6917.873,95.437,540.742,538.733,0.0
51137.0,STARLINK-3180,PAYLOAD,2024-02-28 14:47:20,15.08840391,0.0001272,53.2179,21.4373,101.5641,258.5494,-5.138e-05,-1.105e-05,0.0,0 STARLINK-3180,1 51137U 22005AK  24059.61620926 -.00001105  00000-0 -51380-4 0  9998,2 51137  53.2179  21.4373 0001272 101.5641 258.5494 15.08840391117012,6917.879,95.438,540.624,538.864,0.0
51137.0,STARLINK-3180,PAYLOAD,2024-02-29 06:41:11,15.08842358,0.0001526,53.2195,18.4612,98.3047,261.8118,3.8893e-05,3.31e-06,0.0,0 STARLINK-3180,1 51137U 22005AK  24060.27860909  .00000331  00000-0  38893-4 0  9991,2 51137  53.2195  18.4612 0001526  98.3047 261.8118 15.08842358118226,6917.873,95.437,540.794,538.683,0.0
51137.0,STARLINK-3180,PAYLOAD,2024-02-29 14:38:07,15.08843274,0.0001531,53.2198,16.9756,96.755,263.3616,5.287e-05,5.54e-06,0.0,0 STARLINK-3180,1 51137U 22005AK  24060.60980769  .00000554  00000-0  52870-4 0  9993,2 51137  53.2198  16.9756 0001531  96.7550 263.3616 15.08843274117168,6917.87,95.437,540.795,538.676,0.0
51137.0,STARLINK-3180,PAYLOAD,2024-03-01 06:31:58,15.08849204,0.0001542,53.2192,14.0017,103.1043,257.0121,0.00013312,1.832e-05,0.0,0 STARLINK-3180,1 51137U 22005AK  24061.27220112  .00001832  00000-0  13312-3 0  9993,2 51137  53.2192  14.0017 0001542 103.1043 257.0121 15.08849204118377,6917.852,95.437,540.784,538.651,0.0
